start=new Date('2022-04-21T00:00:00.000Z').valueOf();
sats=[{"BSTAR":"0.00006640100000","ECCENTRICITY":"0.00018400","NORAD_CAT_ID":"45084","PERIOD":"95.592","FILE":"3409979","EPHEMERIS_TYPE":"0","INCLINATION":"53.0545","MEAN_ANOMALY":"304.2145","RA_OF_ASC_NODE":"136.2603","ARG_OF_PERICENTER":"55.9018","REV_AT_EPOCH":"12316","GP_ID":"201711956","SITE":"AFETR","RCS_SIZE":"LARGE","MEAN_MOTION_DOT":"0.00000708","OBJECT_ID":"2020-006AS","SEMIMAJOR_AXIS":"6925.333","MEAN_MOTION_DDOT":"0.0000000000000","ELEMENT_SET_NO":"999","TIME_SYSTEM":"UTC","EPOCH":"2022-04-20T19:13:06.671424","OBJECT_NAME":"STARLINK-1173","TLE_LINE2":"2 45084  53.0545 136.2603 0001840  55.9018 304.2145 15.06405175123163","COUNTRY_CODE":"US","PERIAPSIS":"545.923","CLASSIFICATION_TYPE":"U","MEAN_ELEMENT_THEORY":"SGP4","MEAN_MOTION":"15.06405175","CENTER_NAME":"EARTH","LAUNCH_DATE":"2020-01-29","OBJECT_TYPE":"PAYLOAD","TLE_LINE1":"1 45084U 20006AS  22110.80077166  .00000708  00000-0  66401-4 0  9996","APOAPSIS":"548.472","REF_FRAME":"TEME","DECAY_DATE":null},{"SEMIMAJOR_AXIS":"6925.326","OBJECT_ID":"2020-006AT","SITE":"AFETR","RCS_SIZE":"LARGE","MEAN_MOTION_DOT":"0.00001353","GP_ID":"201712707","REV_AT_EPOCH":"12316","ARG_OF_PERICENTER":"53.0959","MEAN_ANOMALY":"307.0194","RA_OF_ASC_NODE":"136.2641","INCLINATION":"53.0543","EPHEMERIS_TYPE":"0","PERIOD":"95.592","FILE":"3409979","NORAD_CAT_ID":"45085","ECCENTRICITY":"0.00017850","BSTAR":"0.00010971000000","DECAY_DATE":null,"APOAPSIS":"548.427","REF_FRAME":"TEME","TLE_LINE1":"1 45085U 20006AT  22110.79708747  .00001353  00000-0  10971-3 0  9998","OBJECT_TYPE":"PAYLOAD","LAUNCH_DATE":"2020-01-29","CENTER_NAME":"EARTH","MEAN_MOTION":"15.06407498","MEAN_ELEMENT_THEORY":"SGP4","COUNTRY_CODE":"US","PERIAPSIS":"545.954","CLASSIFICATION_TYPE":"U","TLE_LINE2":"2 45085  53.0543 136.2641 0001785  53.0959 307.0194 15.06407498123160","OBJECT_NAME":"STARLINK-1179","TIME_SYSTEM":"UTC","EPOCH":"2022-04-20T19:07:48.357408","ELEMENT_SET_NO":"999","MEAN_MOTION_DDOT":"0.0000000000000"},{"INCLINATION":"52.9996","MEAN_ANOMALY":"330.5456","RA_OF_ASC_NODE":"129.8444","ARG_OF_PERICENTER":"29.5665","REV_AT_EPOCH":"12313","GP_ID":"201711455","SITE":"AFETR","MEAN_MOTION_DOT":"0.00017229","RCS_SIZE":"LARGE","SEMIMAJOR_AXIS":"6905.960","OBJECT_ID":"2020-006AU","BSTAR":"0.00098598000000","ECCENTRICITY":"0.00022950","NORAD_CAT_ID":"45086","PERIOD":"95.191","FILE":"3409979","EPHEMERIS_TYPE":"0","MEAN_MOTION":"15.12748226","CENTER_NAME":"EARTH","LAUNCH_DATE":"2020-01-29","OBJECT_TYPE":"PAYLOAD","TLE_LINE1":"1 45086U 20006AU  22110.75005021  .00017229  00000-0  98598-3 0  9990","REF_FRAME":"TEME","APOAPSIS":"529.410","DECAY_DATE":null,"MEAN_MOTION_DDOT":"0.0000000000000","ELEMENT_SET_NO":"999","EPOCH":"2022-04-20T18:00:04.338144","TIME_SYSTEM":"UTC","TLE_LINE2":"2 45086  52.9996 129.8444 0002295  29.5665 330.5456 15.12748226123132","OBJECT_NAME":"STARLINK-1181","COUNTRY_CODE":"US","PERIAPSIS":"526.240","CLASSIFICATION_TYPE":"U","MEAN_ELEMENT_THEORY":"SGP4"},{"MEAN_ELEMENT_THEORY":"SGP4","TLE_LINE2":"2 45087  53.0524 136.0334 0001542  64.0708 296.0440 15.06405065123173","OBJECT_NAME":"STARLINK-1185","PERIAPSIS":"546.130","COUNTRY_CODE":"US","CLASSIFICATION_TYPE":"U","ELEMENT_SET_NO":"999","TIME_SYSTEM":"UTC","EPOCH":"2022-04-20T20:22:07.559904","MEAN_MOTION_DDOT":"0.0000000000000","REF_FRAME":"TEME","APOAPSIS":"548.266","DECAY_DATE":null,"TLE_LINE1":"1 45087U 20006AV  22110.84869861  .00002305  00000-0  17354-3 0  9991","CENTER_NAME":"EARTH","LAUNCH_DATE":"2020-01-29","OBJECT_TYPE":"PAYLOAD","MEAN_MOTION":"15.06405065","EPHEMERIS_TYPE":"0","NORAD_CAT_ID":"45087","FILE":"3409979","PERIOD":"95.592","ECCENTRICITY":"0.00015420","BSTAR":"0.00017354000000","RCS_SIZE":"LARGE","SITE":"AFETR","MEAN_MOTION_DOT":"0.00002305","SEMIMAJOR_AXIS":"6925.333","OBJECT_ID":"2020-006AV","GP_ID":"201711205","ARG_OF_PERICENTER":"64.0708","REV_AT_EPOCH":"12317","INCLINATION":"53.0524","MEAN_ANOMALY":"296.0440","RA_OF_ASC_NODE":"136.0334"},{"FILE":"3409979","PERIOD":"95.592","NORAD_CAT_ID":"45088","EPHEMERIS_TYPE":"0","BSTAR":"0.00010020000000","ECCENTRICITY":"0.00016420","GP_ID":"201712457","SEMIMAJOR_AXIS":"6925.331","OBJECT_ID":"2020-006AW","MEAN_MOTION_DOT":"0.00001211","SITE":"AFETR","RCS_SIZE":"LARGE","RA_OF_ASC_NODE":"136.2449","MEAN_ANOMALY":"299.7411","INCLINATION":"53.0526","REV_AT_EPOCH":"12316","ARG_OF_PERICENTER":"60.3741","CLASSIFICATION_TYPE":"U","COUNTRY_CODE":"US","PERIAPSIS":"546.059","TLE_LINE2":"2 45088  53.0526 136.2449 0001642  60.3741 299.7411 15.06405615123160","OBJECT_NAME":"STARLINK-1183","MEAN_ELEMENT_THEORY":"SGP4","MEAN_MOTION_DDOT":"0.0000000000000","TIME_SYSTEM":"UTC","EPOCH":"2022-04-20T19:18:25.019136","ELEMENT_SET_NO":"999","TLE_LINE1":"1 45088U 20006AW  22110.80445624  .00001211  00000-0  10020-3 0  9993","DECAY_DATE":null,"REF_FRAME":"TEME","APOAPSIS":"548.333","MEAN_MOTION":"15.06405615","OBJECT_TYPE":"PAYLOAD","LAUNCH_DATE":"2020-01-29","CENTER_NAME":"EARTH"},{"ECCENTRICITY":"0.00014940","BSTAR":"0.00008876800000","EPHEMERIS_TYPE":"0","NORAD_CAT_ID":"45089","PERIOD":"95.591","FILE":"3409979","REV_AT_EPOCH":"12317","ARG_OF_PERICENTER":"70.0508","MEAN_ANOMALY":"290.0642","RA_OF_ASC_NODE":"136.2492","INCLINATION":"53.0548","SITE":"AFETR","RCS_SIZE":"LARGE","MEAN_MOTION_DOT":"0.00001041","SEMIMAJOR_AXIS":"6925.310","OBJECT_ID":"2020-006AX","GP_ID":"201712207","EPOCH":"2022-04-20T19:17:03.631200","TIME_SYSTEM":"UTC","ELEMENT_SET_NO":"999","MEAN_MOTION_DDOT":"0.0000000000000","MEAN_ELEMENT_THEORY":"SGP4","TLE_LINE2":"2 45089  53.0548 136.2492 0001494  70.0508 290.0642 15.06412734123178","OBJECT_NAME":"STARLINK-1136","COUNTRY_CODE":"US","CLASSIFICATION_TYPE":"U","PERIAPSIS":"546.140","LAUNCH_DATE":"2020-01-29","CENTER_NAME":"EARTH","OBJECT_TYPE":"PAYLOAD","MEAN_MOTION":"15.06412734","DECAY_DATE":null,"REF_FRAME":"TEME","APOAPSIS":"548.209","TLE_LINE1":"1 45089U 20006AX  22110.80351425  .00001041  00000-0  88768-4 0  9995"},{"MEAN_ANOMALY":"294.6035","RA_OF_ASC_NODE":"136.3069","INCLINATION":"53.0545","REV_AT_EPOCH":"12316","ARG_OF_PERICENTER":"65.5136","GP_ID":"201710955","OBJECT_ID":"2020-006AY","SEMIMAJOR_AXIS":"6925.347","MEAN_MOTION_DOT":"0.00001260","SITE":"AFETR","RCS_SIZE":"LARGE","BSTAR":"0.00010348000000","ECCENTRICITY":"0.00017460","PERIOD":"95.592","FILE":"3409979","NORAD_CAT_ID":"45090","EPHEMERIS_TYPE":"0","MEAN_MOTION":"15.06400564","OBJECT_TYPE":"PAYLOAD","LAUNCH_DATE":"2020-01-29","CENTER_NAME":"EARTH","TLE_LINE1":"1 45090U 20006AY  22110.78972269  .00001260  00000-0  10348-3 0  9990","DECAY_DATE":null,"APOAPSIS":"548.421","REF_FRAME":"TEME","MEAN_MOTION_DDOT":"0.0000000000000","EPOCH":"2022-04-20T18:57:12.040416","TIME_SYSTEM":"UTC","ELEMENT_SET_NO":"999","COUNTRY_CODE":"US","CLASSIFICATION_TYPE":"U","PERIAPSIS":"546.003","OBJECT_NAME":"STARLINK-1176","TLE_LINE2":"2 45090  53.0545 136.3069 0001746  65.5136 294.6035 15.06400564123167","MEAN_ELEMENT_THEORY":"SGP4"},{"REV_AT_EPOCH":"12315","ARG_OF_PERICENTER":"54.2582","MEAN_ANOMALY":"305.8580","RA_OF_ASC_NODE":"136.4323","INCLINATION":"53.0532","SITE":"AFETR","MEAN_MOTION_DOT":"0.00000917","RCS_SIZE":"LARGE","SEMIMAJOR_AXIS":"6925.342","OBJECT_ID":"2020-006BA","GP_ID":"201711706","ECCENTRICITY":"0.00018610","BSTAR":"0.00008043900000","EPHEMERIS_TYPE":"0","NORAD_CAT_ID":"45092","PERIOD":"95.592","FILE":"3409979","LAUNCH_DATE":"2020-01-29","CENTER_NAME":"EARTH","OBJECT_TYPE":"PAYLOAD","MEAN_MOTION":"15.06402043","DECAY_DATE":null,"APOAPSIS":"548.496","REF_FRAME":"TEME","TLE_LINE1":"1 45092U 20006BA  22110.76391705  .00000917  00000-0  80439-4 0  9997","EPOCH":"2022-04-20T18:20:02.433120","TIME_SYSTEM":"UTC","ELEMENT_SET_NO":"999","MEAN_MOTION_DDOT":"0.0000000000000","MEAN_ELEMENT_THEORY":"SGP4","OBJECT_NAME":"STARLINK-1137","TLE_LINE2":"2 45092  53.0532 136.4323 0001861  54.2582 305.8580 15.06402043123150","COUNTRY_CODE":"US","CLASSIFICATION_TYPE":"U","PERIAPSIS":"545.918"},{"MEAN_MOTION_DDOT":"0.0000000000000","ELEMENT_SET_NO":"999","EPOCH":"2022-04-20T18:14:44.869920","TIME_SYSTEM":"UTC","TLE_LINE2":"2 45093  53.0543 136.4434 0001858  63.2704 296.8475 15.06393041123157","OBJECT_NAME":"STARLINK-1142","PERIAPSIS":"545.948","COUNTRY_CODE":"US","CLASSIFICATION_TYPE":"U","MEAN_ELEMENT_THEORY":"SGP4","MEAN_MOTION":"15.06393041","CENTER_NAME":"EARTH","LAUNCH_DATE":"2020-01-29","OBJECT_TYPE":"PAYLOAD","TLE_LINE1":"1 45093U 20006BB  22110.76024155  .00000113  00000-0  26496-4 0  9991","APOAPSIS":"548.522","REF_FRAME":"TEME","DECAY_DATE":null,"BSTAR":"0.00002649600000","ECCENTRICITY":"0.00018580","NORAD_CAT_ID":"45093","FILE":"3409979","PERIOD":"95.593","EPHEMERIS_TYPE":"0","INCLINATION":"53.0543","RA_OF_ASC_NODE":"136.4434","MEAN_ANOMALY":"296.8475","ARG_OF_PERICENTER":"63.2704","REV_AT_EPOCH":"12315","GP_ID":"201711957","SITE":"AFETR","RCS_SIZE":"LARGE","MEAN_MOTION_DOT":"0.00000113","OBJECT_ID":"2020-006BB","SEMIMAJOR_AXIS":"6925.370"},{"SITE":"AFETR","MEAN_MOTION_DOT":"-0.00000779","RCS_SIZE":"LARGE","OBJECT_ID":"2020-006BC","SEMIMAJOR_AXIS":"6925.348","GP_ID":"201712708","REV_AT_EPOCH":"12316","ARG_OF_PERICENTER":"61.3181","MEAN_ANOMALY":"298.7968","RA_OF_ASC_NODE":"136.3750","INCLINATION":"53.0536","EPHEMERIS_TYPE":"0","NORAD_CAT_ID":"45094","PERIOD":"95.592","FILE":"3409979","ECCENTRICITY":"0.00015990","BSTAR":"-0.00003338500000","DECAY_DATE":null,"APOAPSIS":"548.320","REF_FRAME":"TEME","TLE_LINE1":"1 45094U 20006BC  22110.77496921 -.00000779  00000-0 -33385-4 0  9992","LAUNCH_DATE":"2020-01-29","CENTER_NAME":"EARTH","OBJECT_TYPE":"PAYLOAD","MEAN_MOTION":"15.06400230","MEAN_ELEMENT_THEORY":"SGP4","OBJECT_NAME":"STARLINK-1146","TLE_LINE2":"2 45094  53.0536 136.3750 0001599  61.3181 298.7968 15.06400230123168","COUNTRY_CODE":"US","PERIAPSIS":"546.105","CLASSIFICATION_TYPE":"U","TIME_SYSTEM":"UTC","EPOCH":"2022-04-20T18:35:57.339744","ELEMENT_SET_NO":"999","MEAN_MOTION_DDOT":"0.0000000000000"}];
